{
    "links": {
        "self": "http://www.neowsapp.com/rest/v1/neo/3843120?api_key=iIulBulltgU6a56xZRHN4H3l9WmuAYTsLGpBGhQ2"
    },
    "id": "3843120",
    "neo_reference_id": "3843120",
    "name": "(2019 LC7)",
    "designation": "2019 LC7",
    "nasa_jpl_url": "http://ssd.jpl.nasa.gov/sbdb.cgi?sstr=3843120",
    "absolute_magnitude_h": 25.9,
    "estimated_diameter": {
        "kilometers": {
            "estimated_diameter_min": 0.0175612318,
            "estimated_diameter_max": 0.0392681082
        },
        "meters": {
            "estimated_diameter_min": 17.561231848,
            "estimated_diameter_max": 39.2681081809
        },
        "miles": {
            "estimated_diameter_min": 0.0109120402,
            "estimated_diameter_max": 0.0244000636
        },
        "feet": {
            "estimated_diameter_min": 57.6155918963,
            "estimated_diameter_max": 128.8323800441
        }
    },
    "is_potentially_hazardous_asteroid": false,
    "close_approach_data": [
        {
            "close_approach_date": "2019-06-11",
            "close_approach_date_full": "2019-Jun-11 18:29",
            "epoch_date_close_approach": 1560277740000,
            "relative_velocity": {
                "kilometers_per_second": "9.5143106977",
                "kilometers_per_hour": "34251.5185118061",
                "miles_per_hour": "21282.5615997386"
            },
            "miss_distance": {
                "astronomical": "0.0181760935",
                "lunar": "7.0705003715",
                "kilometers": "2719104.872520845",
                "miles": "1689573.421223861"
            },
            "orbiting_body": "Earth"
        }
    ],
    "orbital_data": {
        "orbit_id": "2",
        "orbit_determination_date": "2020-09-11 07:43:03",
        "first_observation_date": "2019-06-14",
        "last_observation_date": "2019-07-01",
        "data_arc_in_days": 17,
        "observations_used": 14,
        "orbit_uncertainty": "7",
        "minimum_orbit_intersection": ".0147571",
        "jupiter_tisserand_invariant": "3.511",
        "epoch_osculation": "2459000.5",
        "eccentricity": ".523003318905332",
        "semi_major_axis": "2.133262781086645",
        "inclination": "10.94291315456216",
        "ascending_node_longitude": "264.1565036980202",
        "orbital_period": "1138.059481436712",
        "perihelion_distance": "1.017559266481111",
        "perihelion_argument": "343.6127321832967",
        "aphelion_distance": "3.248966295692179",
        "perihelion_time": "2458635.252493803439",
        "mean_anomaly": "115.5379875793198",
        "mean_motion": ".3163279300177948",
        "equinox": "J2000",
        "orbit_class": {
            "orbit_class_type": "AMO",
            "orbit_class_description": "Near-Earth asteroid orbits similar to that of 1221 Amor",
            "orbit_class_range": "1.017 AU < q (perihelion) < 1.3 AU"
        }
    },
    "is_sentry_object": false
}